[{"OBJECT_NAME":"STARLINK-34416","OBJECT_ID":"2025-137AB","EPOCH":"2026-03-09T22:29:58.788672","MEAN_MOTION":15.30138478,"ECCENTRICITY":0.00016653,"INCLINATION":53.1604,"RA_OF_ASC_NODE":334.023,"ARG_OF_PERICENTER":11.2658,"MEAN_ANOMALY":348.8379,"EPHEMERIS_TYPE":0,"CLASSIFICATION_TYPE":"U","NORAD_CAT_ID":64619,"ELEMENT_SET_NO":999,"REV_AT_EPOCH":4077,"BSTAR":0.0012194054,"MEAN_MOTION_DOT":0.00035862,"MEAN_MOTION_DDOT":0},{"OBJECT_NAME":"FREGAT DEB","OBJECT_ID":"2011-037CX","EPOCH":"2026-03-09T22:22:15.719232","MEAN_MOTION":12.70252639,"ECCENTRICITY":0.12472984,"INCLINATION":51.4233,"RA_OF_ASC_NODE":4.0605,"ARG_OF_PERICENTER":90.8093,"MEAN_ANOMALY":283.5512,"EPHEMERIS_TYPE":0,"CLASSIFICATION_TYPE":"U","NORAD_CAT_ID":45878,"ELEMENT_SET_NO":999,"REV_AT_EPOCH":24233,"BSTAR":0.0072133856,"MEAN_MOTION_DOT":0.00053661,"MEAN_MOTION_DDOT":0}]
